OBJECT_NAME,OBJECT_ID,EPOCH,MEAN_MOTION,ECCENTRICITY,INCLINATION,RA_OF_ASC_NODE,ARG_OF_PERICENTER,MEAN_ANOMALY,EPHEMERIS_TYPE,CLASSIFICATION_TYPE,NORAD_CAT_ID,ELEMENT_SET_NO,REV_AT_EPOCH,BSTAR,MEAN_MOTION_DOT,MEAN_MOTION_DDOT
STARLINK-11150 [DTC],2024-141J,2026-05-24T02:16:45.062400,15.69700413,.0000972,53.1576,74.7260,90.7141,269.3988,0,U,60406,999,10358,-.18967E-5,-.818E-5,0
STARLINK-11136 [DTC],2024-141K,2026-05-24T02:09:41.577120,15.69699055,.0001098,53.1588,74.6902,91.3831,268.7312,0,U,60407,999,10353,.40892E-5,-.93E-6,0
STARLINK-11196 [DTC],2024-141L,2026-05-24T02:02:37.653792,15.69700413,.0000871,53.1583,74.6554,93.3634,266.7483,0,U,60408,999,10358,-.14528E-4,-.2347E-4,0
STARLINK-11174 [DTC],2024-141M,2026-05-24T01:48:29.508192,15.69706251,.0000863,53.1588,74.5919,80.6982,279.4133,0,U,60409,999,10353,.39883E-5,-.105E-5,0
STARLINK-11191 [DTC],2024-141N,2026-05-24T04:44:47.360832,15.69710771,.0000915,53.1583,73.9305,97.8391,262.2731,0,U,60410,999,10360,.12104E-4,.878E-5,0
STARLINK-32244,2024-141P,2026-05-23T16:31:28.752672,15.31716487,.0001285,53.1613,254.2003,90.5955,269.5193,0,U,60411,999,10106,.62438E-4,.1574E-4,0
STARLINK-32186,2024-141Q,2026-05-24T00:28:25.401216,15.34388340,.0001084,53.1625,252.0033,104.7501,255.3622,0,U,60412,999,10106,-.14456E-5,-.425E-5,0
STARLINK-32178,2024-141R,2026-05-23T19:34:54.110784,15.34399188,.0001168,53.1603,252.8612,108.0248,252.0882,0,U,60413,999,10103,.82756E-4,.2421E-4,0
STARLINK-32234,2024-141S,2026-05-24T00:07:51.007008,15.31710069,.0001255,53.1570,252.6236,226.0422,134.0476,0,U,60414,999,10111,-.97504E-4,-.339E-4,0
STARLINK-32265,2024-141T,2026-05-24T00:25:23.479104,15.34385905,.0000976,53.1602,251.9873,129.7242,230.3846,0,U,60415,999,10112,.14548E-4,.115E-5,0
STARLINK-32197,2024-141U,2026-05-24T00:11:11.329728,15.31718485,.0001188,53.1604,242.6729,88.6026,271.5112,0,U,60416,999,10119,-.95651E-4,-.3334E-4,0
STARLINK-32255,2024-141V,2026-05-23T18:46:34.010112,15.34393341,.0001152,53.1606,253.3623,81.9073,278.2060,0,U,60417,999,10108,.1204E-4,.31E-6,0
STARLINK-32236,2024-141W,2026-05-23T18:49:35.882976,15.34391741,.0001229,53.1596,253.3743,67.8433,292.2700,0,U,60418,999,10108,.14878E-3,.4652E-4,0
CAPELLA-13 (ACADIA-3),2024-142A,2026-05-24T01:07:59.305152,14.87661468,.0001326,53.0030,162.9383,87.1701,272.9431,0,U,60419,999,9681,.32232E-3,.2726E-4,0
ASBM-1,2024-143A,2026-05-21T21:44:59.911008,1.50427793,.5599565,62.8377,46.5123,269.2591,29.7969,0,U,60422,999,1122,0,-.61E-6,0
ASBM-2,2024-143B,2026-05-23T13:39:08.438688,1.50428815,.5596833,62.8072,46.5193,269.3265,29.7887,0,U,60423,999,1123,0,-.69E-6,0
STARLINK-32250,2024-144A,2026-05-23T17:23:33.463104,15.30191834,.0001244,53.1609,228.8668,72.7438,287.3699,0,U,60425,999,9989,.33166E-4,.623E-5,0
STARLINK-32226,2024-144B,2026-05-23T17:22:02.381088,15.30191152,.0001139,53.1599,228.8595,68.1503,291.9619,0,U,60426,999,10079,.37846E-4,.762E-5,0
STARLINK-32254,2024-144C,2026-05-23T17:03:48.189024,15.30192552,.0001108,53.1598,228.7818,81.6123,278.5003,0,U,60427,999,10083,.10223E-4,-.56E-6,0
STARLINK-32193,2024-144D,2026-05-23T14:10:53.434272,15.30203654,.0000933,53.1602,229.4540,92.8367,267.2741,0,U,60428,999,10081,-.57255E-4,-.2054E-4,0
STARLINK-32242,2024-144E,2026-05-23T17:08:21.853248,15.30192654,.0001242,53.1596,228.8015,79.6265,280.4875,0,U,60429,999,10083,-.6127E-5,-.541E-5,0
STARLINK-32196,2024-144F,2026-05-24T05:11:07.615104,15.34387595,.0001139,53.1609,225.5360,104.1320,255.9809,0,U,60430,999,10088,-.8456E-7,-.379E-5,0
STARLINK-32232,2024-144G,2026-05-23T15:40:23.204640,15.30197769,.0001172,53.1596,229.1313,79.1572,280.9561,0,U,60431,999,10078,-.10327E-4,-.665E-5,0
STARLINK-32246,2024-144H,2026-05-24T05:30:08.857152,15.30192928,.0001214,53.1604,226.3272,88.7498,271.3642,0,U,60432,999,10087,.18672E-4,.194E-5,0
STARLINK-32183,2024-144J,2026-05-23T23:10:53.677056,15.30192589,.0001253,53.1612,227.5278,77.3621,282.7520,0,U,60433,999,10083,.19966E-4,.232E-5,0
STARLINK-32233,2024-144K,2026-05-24T05:17:11.128416,15.34398009,.0001233,53.1594,225.5609,90.5882,269.5261,0,U,60434,999,10088,.22178E-3,.7124E-4,0
STARLINK-32222,2024-144L,2026-05-23T18:02:26.378880,15.34386254,.00007,53.1598,227.6142,93.2247,266.8836,0,U,60435,999,10081,-.82654E-5,-.655E-5,0
STARLINK-32229,2024-144M,2026-05-23T14:45:45.605088,15.34397628,.0000954,53.1607,228.1839,90.3071,269.8041,0,U,60436,999,10079,-.1009E-3,-.3783E-4,0
STARLINK-32241,2024-144N,2026-05-23T16:55:54.525216,15.34400175,.0001089,53.1605,228.0360,85.4866,274.6261,0,U,60437,999,10080,-.86754E-4,-.3306E-4,0
STARLINK-32240,2024-144P,2026-05-24T04:46:53.120352,15.34390727,.0001025,53.1607,225.4313,96.1827,263.9292,0,U,60438,999,10092,.31698E-4,.695E-5,0
