STARLINK-11150 [DTC]    
1 60406U 24141J   26144.09496600 -.00000818  00000+0 -18967-5 0  9993
2 60406  53.1576  74.7260 0000972  90.7141 269.3988 15.69700413103589
STARLINK-11136 [DTC]    
1 60407U 24141K   26144.09006455 -.00000093  00000+0  40892-5 0  9995
2 60407  53.1588  74.6902 0001098  91.3831 268.7312 15.69699055103536
STARLINK-11196 [DTC]    
1 60408U 24141L   26144.08515803 -.00002347  00000+0 -14528-4 0  9998
2 60408  53.1583  74.6554 0000871  93.3634 266.7483 15.69700413103589
STARLINK-11174 [DTC]    
1 60409U 24141M   26144.07534153 -.00000105  00000+0  39883-5 0  9998
2 60409  53.1588  74.5919 0000863  80.6982 279.4133 15.69706251103539
STARLINK-11191 [DTC]    
1 60410U 24141N   26144.19777038  .00000878  00000+0  12104-4 0  9996
2 60410  53.1583  73.9305 0000915  97.8391 262.2731 15.69710771103604
STARLINK-32244          
1 60411U 24141P   26143.68852723  .00001574  00000+0  62438-4 0  9994
2 60411  53.1613 254.2003 0001285  90.5955 269.5193 15.31716487101064
STARLINK-32186          
1 60412U 24141Q   26144.01973844 -.00000425  00000+0 -14456-5 0  9995
2 60412  53.1625 252.0033 0001084 104.7501 255.3622 15.34388340101065
STARLINK-32178          
1 60413U 24141R   26143.81590406  .00002421  00000+0  82756-4 0  9995
2 60413  53.1603 252.8612 0001168 108.0248 252.0882 15.34399188101032
STARLINK-32234          
1 60414U 24141S   26144.00545147 -.00003390  00000+0 -97504-4 0  9995
2 60414  53.1570 252.6236 0001255 226.0422 134.0476 15.31710069101117
STARLINK-32265          
1 60415U 24141T   26144.01763286  .00000115  00000+0  14548-4 0  9990
2 60415  53.1602 251.9873 0000976 129.7242 230.3846 15.34385905101123
STARLINK-32197          
1 60416U 24141U   26144.00777002 -.00003334  00000+0 -95651-4 0  9993
2 60416  53.1604 242.6729 0001188  88.6026 271.5112 15.31718485101192
STARLINK-32255          
1 60417U 24141V   26143.78233808  .00000031  00000+0  12040-4 0  9999
2 60417  53.1606 253.3623 0001152  81.9073 278.2060 15.34393341101083
STARLINK-32236          
1 60418U 24141W   26143.78444309  .00004652  00000+0  14878-3 0  9993
2 60418  53.1596 253.3743 0001229  67.8433 292.2700 15.34391741101082
CAPELLA-13 (ACADIA-3)   
1 60419U 24142A   26144.04721418  .00002726  00000+0  32232-3 0  9998
2 60419  53.0030 162.9383 0001326  87.1701 272.9431 14.87661468 96814
ASBM-1                  
1 60422U 24143A   26141.90624897 -.00000061  00000+0  00000+0 0  9993
2 60422  62.8377  46.5123 5599565 269.2591  29.7969  1.50427793 11224
ASBM-2                  
1 60423U 24143B   26143.56884767 -.00000069  00000+0  00000+0 0  9990
2 60423  62.8072  46.5193 5596833 269.3265  29.7887  1.50428815 11234
STARLINK-32250          
1 60425U 24144A   26143.72469286  .00000623  00000+0  33166-4 0  9995
2 60425  53.1609 228.8668 0001244  72.7438 287.3699 15.30191834 99899
STARLINK-32226          
1 60426U 24144B   26143.72363867  .00000762  00000+0  37846-4 0  9997
2 60426  53.1599 228.8595 0001139  68.1503 291.9619 15.30191152100790
STARLINK-32254          
1 60427U 24144C   26143.71097441 -.00000056  00000+0  10223-4 0  9996
2 60427  53.1598 228.7818 0001108  81.6123 278.5003 15.30192552100839
STARLINK-32193          
1 60428U 24144D   26143.59089623 -.00002054  00000+0 -57255-4 0  9993
2 60428  53.1602 229.4540 0000933  92.8367 267.2741 15.30203654100813
STARLINK-32242          
1 60429U 24144E   26143.71414182 -.00000541  00000+0 -61270-5 0  9992
2 60429  53.1596 228.8015 0001242  79.6265 280.4875 15.30192654100834
STARLINK-32196          
1 60430U 24144F   26144.21606036 -.00000379  00000+0 -84560-7 0  9999
2 60430  53.1609 225.5360 0001139 104.1320 255.9809 15.34387595100882
STARLINK-32232          
1 60431U 24144G   26143.65304635 -.00000665  00000+0 -10327-4 0  9992
2 60431  53.1596 229.1313 0001172  79.1572 280.9561 15.30197769100783
STARLINK-32246          
1 60432U 24144H   26144.22926918  .00000194  00000+0  18672-4 0  9997
2 60432  53.1604 226.3272 0001214  88.7498 271.3642 15.30192928100873
STARLINK-32183          
1 60433U 24144J   26143.96589904  .00000232  00000+0  19966-4 0  9998
2 60433  53.1612 227.5278 0001253  77.3621 282.7520 15.30192589100837
STARLINK-32233          
1 60434U 24144K   26144.22026769  .00007124  00000+0  22178-3 0  9999
2 60434  53.1594 225.5609 0001233  90.5882 269.5261 15.34398009100886
STARLINK-32222          
1 60435U 24144L   26143.75169420 -.00000655  00000+0 -82654-5 0  9990
2 60435  53.1598 227.6142 0000700  93.2247 266.8836 15.34386254100819
STARLINK-32229          
1 60436U 24144M   26143.61511117 -.00003783  00000+0 -10090-3 0  9998
2 60436  53.1607 228.1839 0000954  90.3071 269.8041 15.34397628100799
STARLINK-32241          
1 60437U 24144N   26143.70549219 -.00003306  00000+0 -86754-4 0  9995
2 60437  53.1605 228.0360 0001089  85.4866 274.6261 15.34400175100805
STARLINK-32240          
1 60438U 24144P   26144.19922593  .00000695  00000+0  31698-4 0  9993
2 60438  53.1607 225.4313 0001025  96.1827 263.9292 15.34390727100922
